DONGPO 02               
1 53452U 22098J   26176.62565396  .00134279  00000+0  84470-3 0  9995
2 53452  97.5522 308.5567 0003276 250.3081 109.7831 15.76310266216120
DONGPO 01               
1 53453U 22098K   26176.62835537  .00118131  00000+0  82482-3 0  9993
2 53453  97.5587 309.0636 0002332 223.9992 136.1086 15.73945338216086
STARLINK-4400           
1 53468U 22099D   26176.28632006 -.00000755  00000+0 -48401-4 0  9996
2 53468  97.3180 294.9110 0002122 143.8398 216.2974 15.05663276212169
STARLINK-4621           
1 53676U 22105AE  26176.55490184  .00003754  00000+0  26379-3 0  9993
2 53676  97.3222  55.1815 0001957  76.6106 283.5340 15.05682456209465
SHERPA-LTC2             
1 53754U 22107BG  26176.34648175  .00004146  00000+0  21848-3 0  9996
2 53754  53.2340 185.7878 0393165 248.9519 106.8993 14.69777661203748
CENTISPACE-1 S3         
1 53757U 22108A   26176.55241573  .00000441  00000+0  12683-3 0  9995
2 53757  53.5339  20.6682 0009899  17.4181 342.7132 14.61262291202750
CENTISPACE-1 S4         
1 53758U 22108B   26176.53279483  .00000572  00000+0  15115-3 0  9993
2 53758  53.5314  18.2276 0009074   6.1841 353.9245 14.61945562202780
BLUEWALKER-3            
1 53807U 22111AL  26176.49589115  .00008075  00000+0  22031-3 0  9994
2 53807  53.2299 354.9621 0005610 187.0460 173.0467 15.38371451211485
YUNHAI-1 03             
1 53877U 22115A   26176.56792212  .00000321  00000+0  13396-3 0  9997
2 53877  98.5534 174.6086 0005380  35.3298 324.8242 14.32723919196714
CENTISPACE-1 S5         
1 54020U 22126A   26176.55568549  .00000600  00000+0  15281-3 0  9998
2 54020  54.9971 179.4714 0014722  87.8784 272.3896 14.63024417198264
CENTISPACE-1 S6         
1 54021U 22126B   26176.55301473  .00000111  00000+0  59067-4 0  9998
2 54021  54.9974 181.3863 0016546  88.2955 271.9934 14.62295047198228
OTB-3-GAZELLE           
1 54023U 22127A   26176.52122545  .00000159  00000+0  60822-4 0  9992
2 54023  98.3947 168.0988 0013535 158.3302 201.8464 14.42677347195561
ASO-S                   
1 54029U 22129A   26176.59168147  .00000221  00000+0  65608-4 0  9992
2 54029  98.2748 181.5517 0015645  69.1239 291.1630 14.52065521196648
HJ-2E                   
1 54035U 22132A   26176.63254809  .00009642  00000+0  41769-3 0  9996
2 54035  97.3796 180.8566 0019396 345.2065  14.8602 15.22430831205701
COSMOS 2561             
1 54109U 22137A   26176.22262372  .00015021  00000+0  25163-3 0  9990
2 54109  96.9179 234.9231 0009565   7.7210 352.4189 15.51886748207596
GONETS-M 23             
1 54150U 22139A   26176.55395556  .00000044  00000+0  24327-3 0  9995
2 54150  82.5076 343.0939 0021232 200.9412 159.0800 12.42891204166687
GONETS-M 24             
1 54151U 22139B   26176.60753472  .00000039  00000+0  21370-3 0  9996
2 54151  82.4993 342.1145 0016317 210.8048 149.2076 12.42891808166694
GONETS-M 25             
1 54152U 22139C   26176.59393432  .00000032  00000+0  16346-3 0  9991
2 54152  82.5059 342.8139 0020239 209.8026 150.1903 12.42890282166696
SKIF-D                  
1 54153U 22139D   26176.25121485 -.00000017  00000+0  00000+0 0  9992
2 54153  89.9499  96.6656 0007398 195.8282 164.1993  5.00426899 64510
MATS                    
1 54227U 22147A   26176.55717176  .00004359  00000+0  30777-3 0  9994
2 54227  97.6817 178.1168 0012967 165.1808 194.9801 15.05399289199020
JILIN-1 GAOFEN 03D54    
1 54254U 22155D   26176.20934365  .00658477  21582-3  94146-3 0  9994
2 54254  97.6179 330.4467 0008370 261.6084  98.4248 16.05480156201580
EOS-6 (OCEANSAT-3)      
1 54361U 22158A   26176.59885883  .00000264  00000+0  84548-4 0  9997
2 54361  98.3545 274.6816 0000782  45.4250 314.7006 14.47005017189059
DONGPO 09               
1 54685U 22167D   26176.61616749  .00014389  00000+0  40591-3 0  9994
2 54685  97.6900 348.0004 0003632  97.4120 262.7536 15.36510926196743
DONGPO 08               
1 54686U 22167E   26176.61146384  .00013301  00000+0  40862-3 0  9992
2 54686  97.6864 345.1334 0009179 133.5803 226.6202 15.33804686196610
2022-167F               
1 54687U 22167F   26176.36788973  .00355168  53083-4  84103-3 0  9991
2 54687  97.6056   5.3264 0002480 237.1024 123.0013 15.96749537198136
DONGPO 10               
1 54689U 22167H   26176.61365949  .00013440  00000+0  40273-3 0  9995
2 54689  97.6945 347.1071 0006249  86.8613 273.3345 15.34615632196650
JILIN-1 GAOFEN 03D48    
1 54695U 22167P   26176.60714400  .00013708  00000+0  40062-3 0  9994
2 54695  97.6880 346.4812 0007590  90.4010 269.8103 15.35390176196681
STAR VIBE               
1 55009U 23001A   26176.60254829  .00018350  00000+0  41986-3 0  9990
2 55009  97.3173 241.1009 0007060  89.4163 270.7893 15.42834344193526
BRO-8                   
1 55011U 23001C   26176.63838568  .00038863  00000+0  70317-3 0  9995
2 55011  97.3214 241.9463 0006654 101.0425 259.1575 15.49552063193516
CONNECTA T1.2           
1 55012U 23001D   26176.17101693  .00051441  00000+0  87350-3 0  9999
2 55012  97.3263 247.0059 0006045  79.4193 280.7740 15.51295355193787
