OBJECT_NAME,OBJECT_ID,EPOCH,MEAN_MOTION,ECCENTRICITY,INCLINATION,RA_OF_ASC_NODE,ARG_OF_PERICENTER,MEAN_ANOMALY,EPHEMERIS_TYPE,CLASSIFICATION_TYPE,NORAD_CAT_ID,ELEMENT_SET_NO,REV_AT_EPOCH,BSTAR,MEAN_MOTION_DOT,MEAN_MOTION_DDOT
DONGPO 02,2022-098J,2026-06-25T15:00:56.502144,15.76310266,.00032762,97.5522,308.5567,250.3081,109.7831,0,U,53452,999,21612,.84470134E-3,.134279E-2,0
DONGPO 01,2022-098K,2026-06-25T15:04:49.903968,15.73945338,.00023328,97.5587,309.0636,223.9992,136.1086,0,U,53453,999,21608,.82481971E-3,.118131E-2,0
STARLINK-4400,2022-099D,2026-06-25T06:52:18.053184,15.05663276,.00021222,97.3180,294.9110,143.8398,216.2974,0,U,53468,999,21216,-.48401227E-4,-.755E-5,0
STARLINK-4621,2022-105AE,2026-06-25T13:19:03.518976,15.05682456,.0001957,97.3222,55.1815,76.6106,283.5340,0,U,53676,999,20946,.26378546E-3,.3754E-4,0
SHERPA-LTC2,2022-107BG,2026-06-25T08:18:56.023200,14.69777661,.03931655,53.2340,185.7878,248.9519,106.8993,0,U,53754,999,20374,.21848347E-3,.4146E-4,0
CENTISPACE-1 S3,2022-108A,2026-06-25T13:15:28.719072,14.61262291,.00098996,53.5339,20.6682,17.4181,342.7132,0,U,53757,999,20275,.12683427E-3,.441E-5,0
CENTISPACE-1 S4,2022-108B,2026-06-25T12:47:13.473312,14.61945562,.00090743,53.5314,18.2276,6.1841,353.9245,0,U,53758,999,20278,.15114589E-3,.572E-5,0
BLUEWALKER-3,2022-111AL,2026-06-25T11:54:04.995360,15.38371451,.00056106,53.2299,354.9621,187.0460,173.0467,0,U,53807,999,21148,.22030523E-3,.8075E-4,0
YUNHAI-1 03,2022-115A,2026-06-25T13:37:48.471168,14.32723919,.00053805,98.5534,174.6086,35.3298,324.8242,0,U,53877,999,19671,.13396454E-3,.321E-5,0
CENTISPACE-1 S5,2022-126A,2026-06-25T13:20:11.226336,14.63024417,.0014722,54.9971,179.4714,87.8784,272.3896,0,U,54020,999,19826,.15281269E-3,.6E-5,0
CENTISPACE-1 S6,2022-126B,2026-06-25T13:16:20.472672,14.62295047,.00165467,54.9974,181.3863,88.2955,271.9934,0,U,54021,999,19822,.59066702E-4,.111E-5,0
OTB-3-GAZELLE,2022-127A,2026-06-25T12:30:33.878880,14.42677347,.00135352,98.3947,168.0988,158.3302,201.8464,0,U,54023,999,19556,.60822129E-4,.159E-5,0
ASO-S,2022-129A,2026-06-25T14:12:01.279008,14.52065521,.00156456,98.2748,181.5517,69.1239,291.1630,0,U,54029,999,19664,.65608049E-4,.221E-5,0
HJ-2E,2022-132A,2026-06-25T15:10:52.154976,15.22430831,.00193969,97.3796,180.8566,345.2065,14.8602,0,U,54035,999,20570,.41769163E-3,.9642E-4,0
COSMOS 2561,2022-137A,2026-06-25T05:20:34.689408,15.51886748,.0009565,96.9179,234.9231,7.7210,352.4189,0,U,54109,999,20759,.25163E-3,.15021E-3,0
GONETS-M 23,2022-139A,2026-06-25T13:17:41.760384,12.42891204,.00212329,82.5076,343.0939,200.9412,159.0800,0,U,54150,999,16668,.24326928E-3,.44E-6,0
GONETS-M 24,2022-139B,2026-06-25T14:34:50.999808,12.42891808,.00163176,82.4993,342.1145,210.8048,149.2076,0,U,54151,999,16669,.21369827E-3,.39E-6,0
GONETS-M 25,2022-139C,2026-06-25T14:15:15.925248,12.42890282,.00202394,82.5059,342.8139,209.8026,150.1903,0,U,54152,999,16669,.16345509E-3,.32E-6,0
SKIF-D,2022-139D,2026-06-25T06:01:44.963040,5.00426899,.00073986,89.9499,96.6656,195.8282,164.1993,0,U,54153,999,6451,0,-.17E-6,0
MATS,2022-147A,2026-06-25T13:22:19.640064,15.05399289,.00129671,97.6817,178.1168,165.1808,194.9801,0,U,54227,999,19902,.30776675E-3,.4359E-4,0
JILIN-1 GAOFEN 03D54,2022-155D,2026-06-25T05:01:27.291360,16.05480156,.00083702,97.6179,330.4467,261.6084,98.4248,0,U,54254,999,20158,.94146241E-3,.658477E-2,.21581628E-3
EOS-6 (OCEANSAT-3),2022-158A,2026-06-25T14:22:21.402912,14.47005017,.00007824,98.3545,274.6816,45.4250,314.7006,0,U,54361,999,18905,.84548425E-4,.264E-5,0
DONGPO 09,2022-167D,2026-06-25T14:47:16.871136,15.36510926,.00036324,97.6900,348.0004,97.4120,262.7536,0,U,54685,999,19674,.40590951E-3,.14389E-3,0
DONGPO 08,2022-167E,2026-06-25T14:40:30.475776,15.33804686,.00091793,97.6864,345.1334,133.5803,226.6202,0,U,54686,999,19661,.40862357E-3,.13301E-3,0
2022-167F,2022-167F,2026-06-25T08:49:45.672672,15.96749537,.00024806,97.6056,5.3264,237.1024,123.0013,0,U,54687,999,19813,.84103122E-3,.355168E-2,.53083022E-4
DONGPO 10,2022-167H,2026-06-25T14:43:40.179936,15.34615632,.00062493,97.6945,347.1071,86.8613,273.3345,0,U,54689,999,19665,.40273223E-3,.1344E-3,0
JILIN-1 GAOFEN 03D48,2022-167P,2026-06-25T14:34:17.241600,15.35390176,.00075906,97.6880,346.4812,90.4010,269.8103,0,U,54695,999,19668,.40061888E-3,.13708E-3,0
STAR VIBE,2023-001A,2026-06-25T14:27:40.172256,15.42834344,.00070607,97.3173,241.1009,89.4163,270.7893,0,U,55009,999,19352,.41986027E-3,.1835E-3,0
BRO-8,2023-001C,2026-06-25T15:19:16.522752,15.49552063,.00066546,97.3214,241.9463,101.0425,259.1575,0,U,55011,999,19351,.70317069E-3,.38863E-3,0
CONNECTA T1.2,2023-001D,2026-06-25T04:06:15.862752,15.51295355,.00060456,97.3263,247.0059,79.4193,280.7740,0,U,55012,999,19378,.87349793E-3,.51441E-3,0
